{
  "norad_id": 63797,
  "name": "STARLINK-33712",
  "history": [
    {
      "epoch": "2026-03-28T14:30:20.148768",
      "apogee_km": 483.62525701030245,
      "perigee_km": 482.36418100034916,
      "latitude_deg": -41.72624934320977,
      "longitude_deg": -102.2776124801021,
      "semi_major_axis_km": 6861.131719005326,
      "eccentricity": 9.19e-05,
      "inclination_deg": 43.0015,
      "raan_deg": 309.345,
      "arg_perigee_deg": 284.4488,
      "mean_anomaly_deg": 75.6261,
      "mean_motion_rev_day": 15.2759816
    },
    {
      "epoch": "2026-03-28T23:55:16.233024",
      "apogee_km": 483.79748562292207,
      "perigee_km": 482.21942216852585,
      "latitude_deg": -41.791446489113746,
      "longitude_deg": -64.61529664020054,
      "semi_major_axis_km": 6861.145453895723,
      "eccentricity": 0.000115,
      "inclination_deg": 43.0038,
      "raan_deg": 307.1298,
      "arg_perigee_deg": 280.6919,
      "mean_anomaly_deg": 79.3803,
      "mean_motion_rev_day": 15.27593573
    }
  ]
}